{
  "type": "FeatureCollection",
  "features": [
    {
      "type": "Feature",
      "properties": {
        "norad_id": 41772,
        "name": "SKYSAT-C5",
        "group": "resource",
        "lat": -2.4336487230047945,
        "lon": -155.52843056534016,
        "alt_km": 462.0604159806853,
        "timestamp": "2025-12-06T18:50:09.828232+00:00",
        "meta_object_name": "SKYSAT-C5",
        "meta_object_id": "2016-058C",
        "meta_epoch": "2025-12-06T07:05:47.209056",
        "meta_mean_motion": 15.35483302,
        "meta_eccentricity": 0.00026936,
        "meta_inclination": 97.0766,
        "meta_ra_of_asc_node": 24.3042,
        "meta_arg_of_pericenter": 119.9432,
        "meta_mean_anomaly": 240.208,
        "meta_ephemeris_type": 0,
        "meta_classification_type": "U",
        "meta_norad_cat_id": 41772,
        "meta_element_set_no": 999,
        "meta_rev_at_epoch": 51417,
        "meta_bstar": 0.00052165201,
        "meta_mean_motion_dot": 0.00017932,
        "meta_mean_motion_ddot": 0,
        "tle_line1": "1 41772U 16058C   25340.29568529  .00017932  00000+0  52165-3 0  9994",
        "tle_line2": "2 41772  97.0766  24.3042 0002693 119.9432 240.2080 15.35483302514170"
      },
      "geometry": {
        "type": "Point",
        "coordinates": [
          -155.52843056534016,
          -2.4336487230047945
        ]
      }
    },
    {
      "type": "Feature",
      "properties": {
        "norad_id": 41773,
        "name": "SKYSAT-C2",
        "group": "resource",
        "lat": 27.459503520035277,
        "lon": -170.75499466991928,
        "alt_km": 454.5420269008828,
        "timestamp": "2025-12-06T18:50:09.828242+00:00",
        "meta_object_name": "SKYSAT-C2",
        "meta_object_id": "2016-058D",
        "meta_epoch": "2025-12-06T00:59:22.221888",
        "meta_mean_motion": 15.37045188,
        "meta_eccentricity": 0.00048759,
        "meta_inclination": 97.0361,
        "meta_ra_of_asc_node": 4.853,
        "meta_arg_of_pericenter": 51.4916,
        "meta_mean_anomaly": 308.6766,
        "meta_ephemeris_type": 0,
        "meta_classification_type": "U",
        "meta_norad_cat_id": 41773,
        "meta_element_set_no": 999,
        "meta_rev_at_epoch": 51533,
        "meta_bstar": 0.00046548524,
        "meta_mean_motion_dot": 0.00016818,
        "meta_mean_motion_ddot": 0,
        "tle_line1": "1 41773U 16058D   25340.04122942  .00016818  00000+0  46549-3 0  9994",
        "tle_line2": "2 41773  97.0361   4.8530 0004875  51.4916 308.6766 15.37045188515335"
      },
      "geometry": {
        "type": "Point",
        "coordinates": [
          -170.75499466991928,
          27.459503520035277
        ]
      }
    },
    {
      "type": "Feature",
      "properties": {
        "norad_id": 41774,
        "name": "SKYSAT-C3",
        "group": "resource",
        "lat": -9.53814424970814,
        "lon": -166.36127763542842,
        "alt_km": 438.3118276648338,
        "timestamp": "2025-12-06T18:50:09.828253+00:00",
        "meta_object_name": "SKYSAT-C3",
        "meta_object_id": "2016-058E",
        "meta_epoch": "2025-12-06T04:01:11.652672",
        "meta_mean_motion": 15.4405925,
        "meta_eccentricity": 0.00014445,
        "meta_inclination": 96.9302,
        "meta_ra_of_asc_node": 14.2214,
        "meta_arg_of_pericenter": 103.1252,
        "meta_mean_anomaly": 257.0158,
        "meta_ephemeris_type": 0,
        "meta_classification_type": "U",
        "meta_norad_cat_id": 41774,
        "meta_element_set_no": 999,
        "meta_rev_at_epoch": 51624,
        "meta_bstar": 0.00056996794,
        "meta_mean_motion_dot": 0.00026,
        "meta_mean_motion_ddot": 0,
        "tle_line1": "1 41774U 16058E   25340.16749598  .00026000  00000+0  56997-3 0  9992",
        "tle_line2": "2 41774  96.9302  14.2214 0001444 103.1252 257.0158 15.44059250516246"
      },
      "geometry": {
        "type": "Point",
        "coordinates": [
          -166.36127763542842,
          -9.53814424970814
        ]
      }
    },
    {
      "type": "Feature",
      "properties": {
        "norad_id": 41785,
        "name": "ALSAT 1B",
        "group": "resource",
        "lat": 27.218951520962072,
        "lon": 176.86484964403218,
        "alt_km": 647.1322292134437,
        "timestamp": "2025-12-06T18:50:09.828263+00:00",
        "meta_object_name": "ALSAT 1B",
        "meta_object_id": "2016-059C",
        "meta_epoch": "2025-12-06T06:43:38.210304",
        "meta_mean_motion": 14.72065523,
        "meta_eccentricity": 0.0010523,
        "meta_inclination": 97.7816,
        "meta_ra_of_asc_node": 352.3488,
        "meta_arg_of_pericenter": 122.1046,
        "meta_mean_anomaly": 238.1185,
        "meta_ephemeris_type": 0,
        "meta_classification_type": "U",
        "meta_norad_cat_id": 41785,
        "meta_element_set_no": 999,
        "meta_rev_at_epoch": 49219,
        "meta_bstar": 0.00015899502,
        "meta_mean_motion_dot": 9.53e-06,
        "meta_mean_motion_ddot": 0,
        "tle_line1": "1 41785U 16059C   25340.28030336  .00000953  00000+0  15900-3 0  9999",
        "tle_line2": "2 41785  97.7816 352.3488 0010523 122.1046 238.1185 14.72065523492193"
      },
      "geometry": {
        "type": "Point",
        "coordinates": [
          176.86484964403218,
          27.218951520962072
        ]
      }
    },
    {
      "type": "Feature",
      "properties": {
        "norad_id": 41787,
        "name": "PATHFINDER 1",
        "group": "resource",
        "lat": -27.347188944433213,
        "lon": -12.092631530091609,
        "alt_km": 688.0796636262066,
        "timestamp": "2025-12-06T18:50:09.828274+00:00",
        "meta_object_name": "PATHFINDER 1",
        "meta_object_id": "2016-059E",
        "meta_epoch": "2025-12-06T05:52:07.900896",
        "meta_mean_motion": 14.6730401,
        "meta_eccentricity": 0.00300215,
        "meta_inclination": 97.8138,
        "meta_ra_of_asc_node": 343.3196,
        "meta_arg_of_pericenter": 100.9233,
        "meta_mean_anomaly": 259.5353,
        "meta_ephemeris_type": 0,
        "meta_classification_type": "U",
        "meta_norad_cat_id": 41787,
        "meta_element_set_no": 999,
        "meta_rev_at_epoch": 49141,
        "meta_bstar": 0.00028001374,
        "meta_mean_motion_dot": 1.544e-05,
        "meta_mean_motion_ddot": 0,
        "tle_line1": "1 41787U 16059E   25340.24453589  .00001544  00000+0  28001-3 0  9999",
        "tle_line2": "2 41787  97.8138 343.3196 0030021 100.9233 259.5353 14.67304010491415"
      },
      "geometry": {
        "type": "Point",
        "coordinates": [
          -12.092631530091609,
          -27.347188944433213
        ]
      }
    },
    {
      "type": "Feature",
      "properties": {
        "norad_id": 41790,
        "name": "SCATSAT 1",
        "group": "resource",
        "lat": 73.87972338242064,
        "lon": 7.667477120235458,
        "alt_km": 612.575193777081,
        "timestamp": "2025-12-06T18:50:09.828284+00:00",
        "meta_object_name": "SCATSAT 1",
        "meta_object_id": "2016-059H",
        "meta_epoch": "2025-12-06T03:52:40.855008",
        "meta_mean_motion": 14.78901679,
        "meta_eccentricity": 0.00559571,
        "meta_inclination": 98.1471,
        "meta_ra_of_asc_node": 36.75,
        "meta_arg_of_pericenter": 148.8194,
        "meta_mean_anomaly": 211.6356,
        "meta_ephemeris_type": 0,
        "meta_classification_type": "U",
        "meta_norad_cat_id": 41790,
        "meta_element_set_no": 999,
        "meta_rev_at_epoch": 7305,
        "meta_bstar": 0.00043864665,
        "meta_mean_motion_dot": 3.263e-05,
        "meta_mean_motion_ddot": 0,
        "tle_line1": "1 41790U 16059H   25340.16158397  .00003263  00000+0  43865-3 0  9998",
        "tle_line2": "2 41790  98.1471  36.7500 0055957 148.8194 211.6356 14.78901679 73051"
      },
      "geometry": {
        "type": "Point",
        "coordinates": [
          7.667477120235458,
          73.87972338242064
        ]
      }
    },
    {
      "type": "Feature",
      "properties": {
        "norad_id": 41875,
        "name": "GOKTURK 1A",
        "group": "resource",
        "lat": 32.57723556675298,
        "lon": 58.47915586038282,
        "alt_km": 681.9478731669233,
        "timestamp": "2025-12-06T18:50:09.828294+00:00",
        "meta_object_name": "GOKTURK 1A",
        "meta_object_id": "2016-073A",
        "meta_epoch": "2025-12-06T06:40:28.820640",
        "meta_mean_motion": 14.62768323,
        "meta_eccentricity": 0.00012399,
        "meta_inclination": 98.1437,
        "meta_ra_of_asc_node": 232.7296,
        "meta_arg_of_pericenter": 82.6791,
        "meta_mean_anomaly": 277.4551,
        "meta_ephemeris_type": 0,
        "meta_classification_type": "U",
        "meta_norad_cat_id": 41875,
        "meta_element_set_no": 999,
        "meta_rev_at_epoch": 48062,
        "meta_bstar": 0.00022485566,
        "meta_mean_motion_dot": 1.1e-05,
        "meta_mean_motion_ddot": 0,
        "tle_line1": "1 41875U 16073A   25340.27811135  .00001100  00000+0  22486-3 0  9990",
        "tle_line2": "2 41875  98.1437 232.7296 0001239  82.6791 277.4551 14.62768323480621"
      },
      "geometry": {
        "type": "Point",
        "coordinates": [
          58.47915586038282,
          32.57723556675298
        ]
      }
    }
  ]
}